GLOBALSTAR M084         
1 38040U 11080A   24301.76931655 -.00000084  00000+0  10995-3 0  9996
2 38040  52.0033  36.0369 0000355 133.4965  35.6857 12.62269107593312
GLOBALSTAR M080         
1 38041U 11080B   24301.98122174 -.00000092  00000+0  66053-4 0  9995
2 38041  52.0082  36.9175 0000591 157.8798  14.2883 12.62267228593467
GLOBALSTAR M082         
1 38042U 11080C   24301.59448269 -.00000050  00000+0  29911-3 0  9994
2 38042  52.0100 353.5187 0000792  68.9110  85.2056 12.62268452594127
GLOBALSTAR M092         
1 38043U 11080D   24301.88736972 -.00000076  00000+0  15227-3 0  9991
2 38043  52.0079  82.9873 0000699  97.6852  68.1467 12.62268380592827
GLOBALSTAR M090         
1 38044U 11080E   24301.86215891 -.00000057  00000+0  25988-3 0  9996
2 38044  51.9908 346.8112 0000605  82.4069  88.9849 12.62269459594277
GLOBALSTAR M086         
1 38045U 11080F   24301.88857368 -.00000066  00000+0  21072-3 0  9990
2 38045  51.9921 347.2633 0001120 147.1606  24.9063 12.62268931594323
GLOBALSTAR M097         
1 39072U 13005A   24301.79830476 -.00000083  00000+0  11770-3 0  9994
2 39072  52.0043 261.8497 0000743  80.1444 279.9506 12.62272371541460
GLOBALSTAR M093         
1 39073U 13005B   24301.92992906 -.00000081  00000+0  12880-3 0  9998
2 39073  51.9806 255.1214 0000856  74.3316 285.7645 12.62266320541430
